satname,norad_id,inclination_deg,eccentricity,mean_motion_rev_per_day,perigee_km,apogee_km,l1,l2
STARLINK-1327,45555,53.0564,0.0001257,15.06392768,546.3632039654658,548.1042421652437,1 45555U 20025AA  25284.05764992 -.00001575  00000+0 -86887-4 0  9996,2 45555  53.0564  38.3410 0001257  86.7896 273.3237 15.06392768302815
STARLINK-1336,45557,53.0372,0.0002823,16.00174947,272.0559306440018,275.81168982346026,1 45557U 20025AC  25284.33335648  .00379523  72478-4  72085-3 0  9997,2 45557  53.0372 340.4409 0002823  36.4336 204.3658 16.00174947  6083
STARLINK-1356,45564,53.0583,4.82e-05,15.06403014,546.8685191225277,547.5361218330218,1 45564U 20025AK  25283.79594328  .00000585  00000+0  58158-4 0  9998,2 45564  53.0583  39.5152 0000482 247.8780 112.2157 15.06403014302777
STARLINK-1357,45565,53.0652,0.0005132,15.28983253,475.33145970150144,482.3694716362652,1 45565U 20025AL  25284.01732245  .00069395  00000+0  24215-2 0  9996,2 45565  53.0652  27.0095 0005132 232.1378 127.9157 15.28983253302977
STARLINK-1361,45567,53.0562,0.0001318,15.06397869,546.3053273533051,548.1308509548053,1 45567U 20025AN  25284.01341662 -.00000498  00000+0 -14571-4 0  9994,2 45567  53.0562  38.5381 0001318  91.0075 269.1065 15.06397869302810
STARLINK-1363,45568,53.0565,0.0001534,15.0639963,546.1503432924765,548.2750405779625,1 45568U 20025AP  25284.02820440  .00001431  00000+0  11496-3 0  9990,2 45568  53.0565  38.7124 0001534  85.1823 274.9341 15.06399630302804
STARLINK-1366,45569,53.0553,0.0001485,15.1029607,534.2696967050315,536.3229864074747,1 45569U 20025AQ  25284.33335648  .00058496  00000+0  35195-2 0  9990,2 45569  53.0553  37.0754 0001485 108.7255 181.4877 15.10296070  5804
STARLINK-1376,45570,53.0571,0.000103,15.06395142,546.513134613565,547.9397594836564,1 45570U 20025AR  25283.67800494 -.00000757  00000+0 -31959-4 0  9999,2 45570  53.0571  40.0448 0001030  94.8956 265.2151 15.06395142302754
STARLINK-1320,45572,53.0599,0.0008588,15.3930609,442.2976263615501,454.0224741750908,1 45572U 20025AT  25283.89814470  .00071729  00000+0  18028-2 0  9999,2 45572  53.0599 347.3958 0008588 288.8761  71.1311 15.39306090303538
STARLINK-1321,45573,53.055,0.0001542,15.06391696,546.1691159470665,548.3049012913261,1 45573U 20025AU  25283.99591380 -.00003016  00000+0 -18370-3 0  9990,2 45573  53.0550  28.6183 0001542  94.6144 265.5021 15.06391696302644
STARLINK-1328,45576,53.0547,0.0007711,15.61331184,378.5967388558038,389.0250148715031,1 45576U 20025AX  25284.33335648  .00124405  00000+0  14183-2 0  9996,2 45576  53.0547  11.7642 0007711 316.8740  40.8777 15.61331184  5998
STARLINK-1331,45578,53.0575,0.0001447,15.0639821,546.21494530573,548.2191427660755,1 45578U 20025AZ  25283.70841585 -.00003101  00000+0 -18936-3 0  9992,2 45578  53.0575  29.9051 0001447 103.3550 256.7601 15.06398210302912
STARLINK-1333,45580,53.0555,0.0001256,15.06399636,546.3428496270799,548.082497465075,1 45580U 20025BB  25284.04659671 -.00001472  00000+0 -79954-4 0  9993,2 45580  53.0555  38.3912 0001256  91.6416 268.4717 15.06399636302811
STARLINK-1335,45581,53.0561,0.0001455,15.06405285,546.1877243633999,548.2029960802247,1 45581U 20025BC  25283.98485411 -.00002115  00000+0 -12309-3 0  9990,2 45581  53.0561  28.6692 0001455  93.9733 266.1422 15.06405285302944
STARLINK-1337,45582,53.0549,0.0001343,15.06400158,546.2809994447789,548.1411479373719,1 45582U 20025BD  25284.00697776  .00002082  00000+0  15860-3 0  9990,2 45582  53.0549  28.5706 0001343  89.5343 270.5800 15.06400158302943
STARLINK-1347,45586,53.0575,0.0005163,15.2816991,477.74174285195113,484.8247802140095,1 45586U 20025BH  25283.67691200  .00056368  00000+0  20223-2 0  9996,2 45586  53.0575  18.9695 0005163 243.3134 116.7336 15.28169910303047
STARLINK-1360,45588,53.0468,0.0006136,15.70666659,352.8578738884253,361.1232224155174,1 45588U 20025BK  25284.31196303  .00077855  00000+0  61588-3 0  9998,2 45588  53.0468 300.9753 0006136  43.9019 316.2484 15.70666659304205
STARLINK-1364,45589,53.056,0.0001584,15.06393953,546.1331130371027,548.3270693315899,1 45589U 20025BL  25283.67892950  .00000890  00000+0  78642-4 0  9993,2 45589  53.0560  30.0452 0001584  86.3145 273.8025 15.06393953302894
STARLINK-1365,45590,53.0538,0.0001283,15.06396678,546.3332158822668,548.1102629347997,1 45590U 20025BM  25284.09266792 -.00000334  00000+0 -35596-5 0  9998,2 45590  53.0538  58.1830 0001283  89.4087 270.7049 15.06396678302559
STARLINK-1443,45660,53.0549,0.0001467,15.06403627,546.1844947252621,548.2163887306651,1 45660U 20035D   25283.67985941  .00005281  00000+0  37314-3 0  9996,2 45660  53.0549  20.0400 0001467  73.1634 286.9516 15.06403627296128
STARLINK-1446,45663,53.0288,0.0002698,15.31089878,470.7110232166606,474.4076589623128,1 45663U 20035G   25283.90999132  .00038391  00000+0  12661-2 0  9997,2 45663  53.0288 345.7311 0002698 202.4229 157.6653 15.31089878296620
STARLINK-1448,45665,53.0549,0.0001576,15.06386735,546.1607722110484,548.3436548911595,1 45665U 20035J   25283.68353273  .00001713  00000+0  13390-3 0  9993,2 45665  53.0549  20.0200 0001576  96.6117 263.5052 15.06386735296113
STARLINK-1451,45668,53.0568,0.0001336,15.06393701,546.3056343867593,548.1560926798957,1 45668U 20035M   25283.62090498 -.00003461  00000+0 -21358-3 0  9994,2 45668  53.0568  20.6202 0001336  85.6252 274.4890 15.06393701296119
STARLINK-1452,45669,53.0395,0.0008136,15.24343167,487.16832452531435,498.3486456586561,1 45669U 20035N   25283.52648400  .00024408  00000+0  99419-3 0  9991,2 45669  53.0395   4.8177 0008136 298.5762  61.4416 15.24343167296321
STARLINK-1453,45670,53.0541,0.0001302,15.06393051,546.3311725490967,548.1345388595228,1 45670U 20035P   25283.89639354 -.00002163  00000+0 -12635-3 0  9992,2 45670  53.0541 349.0706 0001302  89.9865 270.1273 15.06393051296464
STARLINK-1454,45671,53.0555,0.0001245,15.06394328,546.3667337961451,548.0911499156673,1 45671U 20035Q   25283.97471986 -.00002276  00000+0 -13399-3 0  9990,2 45671  53.0555  18.7175 0001245  93.1753 266.9379 15.06394328296153
STARLINK-1456,45673,53.0534,0.0001893,15.06396616,545.9109589849668,548.5328998756486,1 45673U 20035S   25283.98947591  .00004345  00000+0  31044-3 0  9997,2 45673  53.0534  18.6518 0001893  90.7237 269.3969 15.06396616296177
STARLINK-1457,45674,53.0566,0.0001433,15.06403509,546.2084024723181,548.1932042867656,1 45674U 20035T   25283.99684042  .00002877  00000+0  21195-3 0  9992,2 45674  53.0566  18.6148 0001433  90.6334 269.4819 15.06403509296141
STARLINK-1458,45675,53.0542,0.0001209,15.06396875,546.383859831155,548.0584114283492,1 45675U 20035U   25283.98577484 -.00001259  00000+0 -65661-4 0  9995,2 45675  53.0542  18.6654 0001209 100.3656 259.7470 15.06396875296136
STARLINK-1460,45676,53.0557,0.0001322,15.06399133,546.2986837390354,548.1297466003252,1 45676U 20035V   25284.28802172  .00001605  00000+0  12664-3 0  9992,2 45676  53.0557  17.3045 0001322  91.9296 268.1844 15.06399133296177
STARLINK-1392,45677,53.0565,0.0001299,15.06396034,546.3241088270943,548.1233175403795,1 45677U 20035W   25283.96734322 -.00000565  00000+0 -19021-4 0  9999,2 45677  53.0565  18.7486 0001299  88.9887 271.1250 15.06396034296167
STARLINK-1394,45679,53.0546,0.0001299,15.06431769,546.214602110128,548.0137823698715,1 45679U 20035Y   25283.63285725  .00013414  00000+0  91695-3 0  9994,2 45679  53.0546  10.2500 0001299  85.2034 274.9103 15.06431769296259
STARLINK-1402,45685,53.0549,0.0001331,15.06416113,546.2404170340551,548.0839316742686,1 45685U 20035AE  25283.92899549  .00001217  00000+0  10051-3 0  9993,2 45685  53.0549   3.3438 0001331  88.2585 271.8557 15.06416113296382
STARLINK-1404,45686,53.0531,0.000146,15.06388873,546.2345549321353,548.2567666690893,1 45686U 20035AF  25283.52595958 -.00002714  00000+0 -16343-3 0  9992,2 45686  53.0531  10.7294 0001460  95.7967 264.3189 15.06388873296240
STARLINK-1413,45689,53.0551,0.0001237,15.06387652,546.392732740298,548.1060733364093,1 45689U 20035AJ  25283.94246628  .00006404  00000+0  44858-3 0  9998,2 45689  53.0551   8.8578 0001237  97.4460 262.6670 15.06387652296214
STARLINK-1417,45693,53.0571,0.0001304,15.06391718,546.3338724298137,548.1400099536768,1 45693U 20035AN  25283.93878872  .00002220  00000+0  16795-3 0  9995,2 45693  53.0571   8.8796 0001304  92.1554 267.9584 15.06391718296292
STARLINK-1420,45695,53.0549,0.0001344,15.06389751,546.3121987573031,548.1737408931922,1 45695U 20035AQ  25283.87333001 -.00002765  00000+0 -16683-3 0  9992,2 45695  53.0549 349.1612 0001344  94.8011 265.3131 15.06389751296573
STARLINK-1422,45696,53.0548,0.000129,15.06396432,546.3291219913308,548.11586474062,1 45696U 20035AR  25283.48541792  .00000913  00000+0  80169-4 0  9990,2 45696  53.0548  10.9150 0001290  73.0603 287.0527 15.06396432296225
STARLINK-1351,45697,53.0545,0.0001342,15.06412115,546.2450506634405,548.1038042505688,1 45697U 20035AS  25284.32397088  .00005613  00000+0  39530-3 0  9999,2 45697  53.0545 347.1490 0001342  70.2889 289.8245 15.06412115296648
STARLINK-1398,45699,53.0512,0.0001204,15.45699837,428.5028974035722,430.14213365491105,1 45699U 20035AU  25284.31147450  .00101304  00000+0  20465-2 0  9996,2 45699  53.0512 312.8758 0001204 278.0879  81.9991 15.45699837297128
STARLINK-1400,45700,53.0542,0.0001429,15.06401948,546.2159561495064,548.1952190610427,1 45700U 20035AV  25283.90008816  .00001282  00000+0  10493-3 0  9990,2 45700  53.0542 349.0550 0001429  88.1161 271.9991 15.06401948296579
STARLINK-1403,45701,53.0566,0.0001467,15.0639647,546.2064266803991,548.2383271215813,1 45701U 20035AW  25284.32765054  .00000831  00000+0  74708-4 0  9991,2 45701  53.0566 347.1307 0001467  83.4268 276.6888 15.06396470296630
STARLINK-1407,45703,53.0422,0.0010442,15.37055306,447.68749865429163,461.9574512217523,1 45703U 20035AY  25284.29401848  .00025414  00000+0  69789-3 0  9993,2 45703  53.0422 310.5942 0010442 327.5800  32.4560 15.37055306297156
